C/2019 M3 (ATLAS),e,99.6593,155.0592,87.9356,5075,0.0000027,0.99952223,0.0000,12/31.4780/2018,2000,g 12.2,4.0
# From MPEC 2023-JA2
C/2019 M4 (TESS),h,09/09.3923/2019,65.6932,52.6412,260.3377,1.000213,9.191033,2000,5.0,4.0
# From MPEC 2023-C45
C/2019 N1 (ATLAS),e,82.5407,13.5078,193.3419,958.7235,0.0000332,0.99822370,0.0000,11/30.4845/2020,2000,g  7.5,4.0
# From MPEC 2023-CD8
A/2019 N2,e,89.3191,276.2265,347.0586,1112,0.0000266,0.99825594,0.0000,08/22.4105/2019,2000,g 12.5,2.0
# From MPEC 2022-A21
C/2019 NJ3 (Lemmon),h,10/22.1730/2020,99.3305,142.4927,246.8696,1.001375,4.362917,2000,9.0,4.0
# From MPC185656
C/2019 O2 (PANSTARRS),e,93.2978,48.2634,129.5725,58.77310,0.0021874,0.83528579,1.8833,08/14.0/2025,2000,g  5.0,4.0
# From MPC182878
C/2019 O3 (Palomar),h,03/08.2772/2021,89.7946,300.4783,60.0968,1.002567,8.820664,2000,3.5,4.0
# From MPEC 2021-P47
A/2019 O4,e,114.9980,354.9257,61.8191,33.22268,0.0051470,0.89037759,10.3499,08/14.0/2025,2000,g 15.5,2.0
# From MPEC 2024-EF7
C/2019 Q1 (Lemmon),h,07/22.2665/2020,155.7199,42.4682,56.2541,1.002442,5.002344,2000,8.5,4.0
# From MPC117072
A/2019 Q2,e,158.9670,188.1329,176.5132,58.81415,0.0021852,0.97856941,0.0000,07/23.7763/2019,2000,g 18.0,2.0
# From MPC117072
P/2019 S2 (PANSTARRS),e,10.4636,93.1798,216.9181,4.747559,0.0952793,0.20467154,225.9191,08/14.0/2025,2000,g 13.5,4.0
# From MPEC 2022-CN4
P/2019 S3 (PANSTARRS),e,8.6942,150.1402,213.0987,3.414238,0.1562296,0.47072365,340.1317,08/14.0/2025,2000,g 18.3,4.0
# From MPEC 2021-S45
C/2019 S4 (Lemmon),e,92.0933,63.1553,71.3699,249.5628,0.0002500,0.98622064,0.0000,04/09.4800/2020,2000,g 11.0,4.0
# From MPEC 2023-N01
A/2019 T1,e,120.8166,6.9280,90.9756,38.74284,0.0040871,0.88967384,6.8340,08/14.0/2025,2000,g 13.0,2.0
# From MPEC 2023-R20
C/2019 T2 (Lemmon),e,111.3656,155.6540,239.3830,3296,0.0000052,0.99919801,0.0000,04/22.4849/2021,2000,g  9.0,4.0
# From MPEC 2023-UR6
C/2019 T3 (ATLAS),e,121.8775,139.5450,112.4908,4800,0.0000030,0.99875964,0.0000,03/04.7758/2021,2000,g  6.8,4.0
# From MPC182878
C/2019 T4 (ATLAS),e,53.6245,199.8979,351.1076,880.0968,0.0000377,0.99518546,0.0000,06/08.6688/2022,2000,g  5.0,4.0
# From MPEC 2021-P47
P/2019 T5 (ATLAS),e,33.4918,247.6130,189.6277,8.008212,0.0434911,0.80976572,95.7886,08/14.0/2025,2000,g 15.0,4.0
# From MPEC 2021-P47
P/2019 T6 (PANSTARRS),e,18.6983,71.2484,329.0613,5.443084,0.0776134,0.62240226,163.3870,08/14.0/2025,2000,g 15.5,4.0
# From MPC118096
P/2019 U4 (PANSTARRS),e,11.6954,200.0000,181.0867,3.518660,0.1493270,0.47572661,321.5433,08/14.0/2025,2000,g 19.0,4.0
# From MPC185656
C/2019 U5 (PANSTARRS),h,03/29.4114/2023,113.5128,2.6102,181.4474,1.000117,3.624296,2000,4.5,4.0
# From MPEC 2022-H04
C/2019 U6 (Lemmon),e,60.9896,235.7441,329.4253,302.7270,0.0001871,0.99700695,0.0000,06/18.3314/2020,2000,g 10.0,4.0
# From MPEC 2022-N37
C/2019 V1 (Borisov),e,61.9484,83.1481,51.1955,2741,0.0000069,0.99887168,0.0000,07/17.6529/2020,2000,g 11.0,4.0
# From MPEC 2022-L66
P/2019 V2 (Groeller),e,11.8070,189.1341,335.6335,7.494721,0.0480364,0.33192830,84.6243,08/14.0/2025,2000,g 10.0,4.0
# From MPEC 2023-A50
P/2019 W1 (PANSTARRS),e,23.4660,35.3597,18.8986,4.548462,0.1016032,0.26718348,232.2458,08/14.0/2025,2000,g 12.9,4.0
# From MPEC 2021-P47
P/2019 X1 (Pruyne),e,10.2452,43.6763,37.0010,6.179728,0.0641579,0.30380889,141.9290,08/14.0/2025,2000,g 10.4,4.0
# From MPEC 2020-C98
P/2019 X2 (Pan-STARRS),e,15.8946,250.8298,213.5222,3.633922,0.1422790,0.50049137,294.7952,08/14.0/2025,2000,g 18.0,4.0
# From MPC119999
C/2019 Y1 (ATLAS),e,73.2685,31.4700,57.9168,88.24970,0.0011889,0.99063682,0.0000,03/17.2573/2020,2000,g 13.7,4.0
# From MPEC 2024-A43
C/2019 Y4 (ATLAS),e,44.9223,120.7966,177.4066,328.5278,0.0001655,0.99921682,0.0000,05/29.5589/2020,2000,g 11.8,6.0
# From MPEC 2020-L06
C/2019 Y4-A (ATLAS),h,05/29.6148/2020,45.3566,121.1647,177.2386,1.001360,0.255452,2000,11.6,6.0
# From MPEC 2025-CE3
C/2019 Y4-B (ATLAS),e,45.0036,120.8599,177.3656,1324,0.0000204,0.99980597,0.0000,05/29.5680/2020,2000,g 12.1,6.0
# From MPEC 2020-L06
C/2019 Y4-C (ATLAS),h,05/29.5690/2020,45.1404,120.8920,177.2713,1.002088,0.256523,2000,12.7,6.0
# From MPEC 2020-L06
C/2019 Y4-D (ATLAS),e,45.1939,121.2530,177.4148,67.22300,0.0017882,0.99619402,0.0000,05/29.6499/2020,2000,g 12.5,6.0
# From MPEC 2023-A50
C/2019 Y5 (PANSTARRS),e,82.7761,51.7693,303.6701,685.1312,0.0000550,0.99279749,0.0000,08/16.4846/2019,2000,g 11.0,4.0
# From MPEC 2023-A50
A/2020 A1,e,149.0315,119.0574,302.4007,25.46067,0.0076718,0.93432237,15.9875,08/14.0/2025,2000,g 18.0,2.0
# From MPEC 2022-YN2
C/2020 A2 (Iwamoto),e,120.5011,286.1849,68.0138,951.0509,0.0000336,0.99897433,0.0000,01/07.0025/2020,2000,g 13.5,4.0
# From MPEC 2023-A50
C/2020 A3 (ATLAS),e,146.6191,120.7977,268.2305,4597,0.0000032,0.99874848,0.0000,06/26.7122/2019,2000,g  8.0,4.0
# From MPEC 2022-P91
P/2020 A4 (PANSTARRS-Lemmon),e,25.0037,312.2763,144.9138,8.203412,0.0419481,0.65447142,87.6490,08/14.0/2025,2000,g 15.0,4.0
# From MPEC 2020-N08
A/2020 B1,e,18.5419,309.7953,154.8902,52.12366,0.0026191,0.96663004,5.3856,08/14.0/2025,2000,g 21.0,2.0
# From MPEC 2020-HN5
C/2020 B2 (Lemmon),e,55.7556,354.1692,143.6331,67.92098,0.0017608,0.95942424,3.5667,08/14.0/2025,2000,g 10.0,4.0
# From MPEC 2022-N37
C/2020 B3 (Rankin),e,20.7068,185.7389,324.9367,1062,0.0000285,0.99686848,0.0000,10/20.8760/2019,2000,g 13.0,4.0
# From MPEC 2023-KD6
P/2020 B4 (Sheppard),e,11.6028,185.9462,342.0583,7.973736,0.0437735,0.19294598,59.6869,08/14.0/2025,2000,g 10.5,4.0
# From MPEC 2025-OF9
C/2020 F2 (ATLAS),h,07/12.4032/2022,163.5897,250.3003,48.2335,1.002421,8.813471,2000,4.5,4.0
# From MPEC 2021-O56
C/2020 F3 (NEOWISE),e,129.1076,61.0735,37.3426,403.8618,0.0001214,0.99927370,0.0000,07/05.0086/2020,2000,g  7.5,5.2
# From MPEC 2024-UQ8
C/2020 F5 (MASTER),e,52.2343,350.5458,310.6105,163.8467,0.0004699,0.97359715,0.0000,03/16.1174/2021,2000,g  6.5,3.2
# From MPEC 2020-L06
C/2020 F6 (PANSTARRS),e,174.5844,207.8352,344.3234,339.5855,0.0001575,0.98969919,0.0000,04/10.2224/2020,2000,g 14.5,2.8
# From MPEC 2024-A43
C/2020 F7 (Lemmon),e,93.9848,321.8200,227.9869,573.3973,0.0000718,0.99069552,0.0000,11/13.9033/2021,2000,g  7.0,4.0
# From MPEC 2023-J29
C/2020 F8 (SWAN),h,05/25.7341/2020,110.5570,259.8034,68.1162,1.000061,0.432964,2000,10.0,4.0
# From MPEC 2020-L06
P/2020 G1 (Pimentel),e,18.5066,240.0968,207.6515,3.606393,0.1439111,0.86082103,283.9746,08/14.0/2025,2000,g 17.0,4.0
# From MPEC 2022-YB4
C/2020 H2 (Pruyne),e,124.7754,277.6715,26.5817,176.4805,0.0004204,0.99530584,0.0000,04/26.7971/2020,2000,g 14.0,3.2
# From MPEC 2020-HM1
C/2020 H3 (Wierzchos),p,06/05.7162/2020,62.5292,30.4456,2.300288,270.6227,2000,13.5,4.0
# From MPEC 2020-L06
C/2020 H4 (Leonard),e,84.4948,307.4457,117.5830,47.85238,0.0029775,0.98061098,0.0000,08/29.1869/2020,2000,g 15.0,3.2
# From MPC184409
C/2020 H5 (Robinson),e,70.2265,210.6130,326.2638,6119,0.0000021,0.99847456,0.0000,12/09.9596/2020,2000,g  5.0,4.0
# From MPEC 2024-JU4
C/2020 H6 (ATLAS),e,79.9904,213.6891,20.1881,1933,0.0000116,0.99757027,0.0000,09/29.5264/2021,2000,g  8.0,3.2
# From MPEC 2020-KB7
C/2020 H7 (Lemmon),e,135.9235,323.5194,82.6780,1405,0.0000187,0.99685380,0.0000,06/02.9510/2020,2000,g 11.0,4.0
# From MPEC 2021-N06
C/2020 H8 (PANSTARRS),e,99.7022,68.4375,128.8117,589.2738,0.0000689,0.99208753,0.0000,06/04.8163/2020,2000,g 10.5,4.0
# From MPEC 2022-ED3
A/2020 H9,e,137.8734,213.1130,312.6076,339.8950,0.0001573,0.99246393,0.0000,12/21.7569/2019,2000,g 18.0,2.0
# From MPEC 2023-HN7
C/2020 H11 (PANSTARRS-Lemmon),e,151.3723,303.0575,91.3616,18831,0.0000004,0.99959531,0.0000,09/12.3921/2020,2000,g  8.5,4.0
# From MPEC 2023-KD6
C/2020 J1 (SONEAR),e,142.3075,226.5830,341.5703,8245,0.0000013,0.99959432,0.0000,04/17.9795/2021,2000,g  8.5,3.2
# From MPC184409
C/2020 K1 (PANSTARRS),e,89.6707,94.3671,213.9695,2282,0.0000090,0.99865307,0.0000,05/08.7049/2023,2000,g  5.5,4.0
# From MPEC 2021-N06
C/2020 K2 (PANSTARRS),h,08/04.2725/2020,90.9875,288.4349,67.3069,1.000816,8.880280,2000,10.8,4.0
# From MPEC 2020-KF9
C/2020 K3 (Leonard),p,06/01.0032/2020,129.0152,64.4924,1.583069,28.3546,2000,14.5,4.0
# From MPEC 2020-L06
C/2020 K4 (PANSTARRS),e,125.5849,264.2749,308.7765,23.92035,0.0084247,0.92711704,16.7479,08/14.0/2025,2000,g 16.5,4.0
# From MPEC 2021-R75
C/2020 K5 (PANSTARRS),h,06/04.1558/2021,67.0677,86.1412,249.6431,1.000777,1.540951,2000,11.0,4.0
# From MPEC 2023-N01
C/2020 K6 (Rankin),h,09/14.6393/2021,103.6293,291.6008,44.2734,1.002014,5.865915,2000,8.0,4.0
# From MPEC 2023-A50
C/2020 K7 (PANSTARRS),e,32.0443,286.1341,358.0698,94.47722,0.0010733,0.93238915,2.2752,08/14.0/2025,2000,g  8.0,4.0
# From MPEC 2021-P47
C/2020 K8 (Catalina-ATLAS),h,09/15.7471/2020,31.3758,181.2830,260.1799,1.000325,0.471611,2000,15.0,3.2
# From MPEC 2021-BE3
P/2020 K9 (Lemmon-PANSTARRS),e,23.1894,166.3101,197.0891,4.207515,0.1141998,0.32008024,187.8544,08/14.0/2025,2000,g 12.5,4.0
# From MPEC 2023-C45
P/2020 M1 (PANSTARRS),e,8.5346,142.6168,72.4837,5.311540,0.0805144,0.47359125,165.9228,08/14.0/2025,2000,g 14.5,4.0
# From MPEC 2022-H30
C/2020 M3 (ATLAS),e,23.4698,71.1785,328.6743,27.31061,0.0069057,0.95329144,12.1077,08/14.0/2025,2000,g 14.5,4.0
# From MPEC 2023-N01
A/2020 M4,e,160.1011,348.6131,104.4713,16507,0.0000005,0.99964012,0.0000,11/22.6733/2020,2000,g 14.5,2.0
# From MPEC 2024-NE4
P/2020 MK4 (PANSTARRS),e,6.7812,0.6621,93.6889,6.224666,0.0634644,0.01522486,321.0089,08/14.0/2025,2000,g  8.0,4.0
# From MPEC 2023-FK0
C/2020 M5 (ATLAS),h,08/19.7345/2021,93.1711,352.0138,126.2442,1.000105,2.999878,2000,9.0,4.0
# From MPEC 2022-GA9
C/2020 N1 (PANSTARRS),h,03/13.1892/2021,29.7676,279.8549,186.8407,1.000884,1.317709,2000,12.5,4.0
# From MPEC 2021-P47
C/2020 N2 (ATLAS),e,161.0388,257.1786,331.1931,101.1942,0.0009682,0.98237687,0.0000,08/24.3109/2020,2000,g 16.0,3.2
# From MPEC 2024-JU4
C/2020 O2 (Amaral),e,71.7624,256.7909,10.1661,9963,0.0000010,0.99951258,0.0000,08/27.2064/2021,2000,g  8.0,3.2
# From MPEC 2023-C45
